      2.10          N: GNSS NAV DATA                        RINEX VERSION / TYPE
fic2rin                                 07/05/2023 00:18:10 PGM / RUN BY / DATE
                                                            END OF HEADER
6  23  7  4  1 59 44.0  .580925494432D-03 -.295585778076D-11  .000000000000D+00
     .180000000000D+02  .208750000000D+02  .396730811145D-08  .134450496659D+01
     .120326876640D-05  .268866622355D-02 -.938773155212D-06  .515369383240D+04
     .179984000000D+06  .135973095894D-06  .163535906802D+01 -.558793544769D-08
     .989014028587D+00  .411156250000D+03 -.748088456613D+00 -.816248285732D-08
     .178936024832D-09  .100000000000D+01  .226900000000D+04  .000000000000D+00
     .240000000000D+01  .000000000000D+00  .372529029846D-08  .180000000000D+02
     .172800000000D+06  .400000000000D+01
23 23  7  4 16 44 32.0  .397274270654D-04  .397903932026D-11  .000000000000D+00
     .670000000000D+02 -.165468750000D+03  .427124934325D-08  .175522680111D+01
    -.841170549393D-05  .332987145521D-02  .454857945442D-05  .515367282486D+04
     .233072000000D+06  .558793544769D-07  .264377834359D+01  .135973095894D-06
     .974656542403D+00  .299781250000D+03 -.310362186290D+01 -.818284084817D-08
    -.434303804782D-09  .100000000000D+01  .226900000000D+04  .000000000000D+00
     .240000000000D+01  .000000000000D+00 -.838190317154D-08  .579000000000D+03
     .225900000000D+06  .400000000000D+01
8  23  7  4 15 59 44.0 -.130522530526D-03 -.181898940355D-11  .000000000000D+00
     .100000000000D+01  .145781250000D+03  .428624996809D-08 -.187207585248D+01
     .723451375961D-05  .847811147105D-02  .107940286398D-04  .515372589493D+04
     .230384000000D+06  .186264514923D-07  .549974231331D+00 -.121071934700D-06
     .958420079849D+00  .170093750000D+03  .270079263234D+00 -.779961059937D-08
     .106433004790D-09  .100000000000D+01  .226900000000D+04  .000000000000D+00
     .240000000000D+01  .000000000000D+00  .512227416039D-08  .100000000000D+01
     .225930000000D+06  .400000000000D+01
7  23  7  4 15 59 44.0  .134527217597D-03 -.105728759081D-10  .000000000000D+00
     .400000000000D+01  .108437500000D+02  .512521348571D-08  .156855722681D+01
     .419095158577D-06  .174612433184D-01  .599771738052D-05  .515372834206D+04
     .230384000000D+06 -.420957803726D-06 -.151417384554D+01 -.819563865662D-07
     .949819019775D+00  .262625000000D+03 -.218438313553D+01 -.834070456668D-08
     .270368404786D-09  .100000000000D+01  .226900000000D+04  .000000000000D+00
     .240000000000D+01  .000000000000D+00 -.111758708954D-07  .400000000000D+01
     .230130000000D+06  .400000000000D+01
8  23  7  4 17 59 44.0 -.130535569042D-03 -.181898940355D-11  .000000000000D+00
     .200000000000D+01  .148031250000D+03  .422767609968D-08 -.821963843213D+00
     .773929059505D-05  .847801077180D-02  .105425715446D-04  .515372531128D+04
     .237584000000D+06  .171363353729D-06  .549918344935D+00 -.763684511185D-07
     .958420464597D+00  .170937500000D+03  .270114240142D+00 -.787247077715D-08
     .282154610015D-10  .100000000000D+01  .226900000000D+04  .000000000000D+00
     .240000000000D+01  .000000000000D+00  .512227416039D-08  .200000000000D+01
     .230400000000D+06  .400000000000D+01
7  23  7  4 17 59 44.0  .134450383484D-03 -.105728759081D-10  .000000000000D+00
     .170000000000D+02  .109062500000D+02  .493627704432D-08  .261872369320D+01
     .352039933205D-06  .174614416901D-01  .573508441448D-05  .515372771645D+04
     .237584000000D+06  .726431608200D-07 -.151423231399D+01 -.249594449997D-06
     .949823455342D+00  .260375000000D+03 -.218439814214D+01 -.784139805428D-08
     .317513225700D-09  .100000000000D+01  .226900000000D+04  .000000000000D+00
     .240000000000D+01  .000000000000D+00 -.111758708954D-07  .170000000000D+02
     .230400000000D+06  .400000000000D+01
2  23  7  4 18  0  0.0 -.579466111958D-03  .375166564481D-11  .000000000000D+00
     .790000000000D+02  .918750000000D+02  .480412868267D-08 -.342145415158D+00
     .466965138912D-05  .159253404709D-01  .827014446259D-06  .515355426788D+04
     .237600000000D+06 -.232830643654D-06  .154371375303D+01 -.577419996262D-07
     .967253196767D+00  .370468750000D+03 -.137446988835D+01 -.880536677887D-08
     .365015204348D-09  .100000000000D+01  .226900000000D+04  .000000000000D+00
     .240000000000D+01  .000000000000D+00 -.176951289177D-07  .790000000000D+02
     .230400000000D+06  .400000000000D+01
1  23  7  4 18  0  0.0  .174606218934D-03 -.204636307899D-11  .000000000000D+00
     .890000000000D+02  .788437500000D+02  .422589031101D-08 -.300915683768D+01
     .385567545891D-05  .129426140338D-01 -.393018126488D-06  .515364342880D+04
     .237600000000D+06  .633299350739D-07  .164322065519D+01 -.307336449623D-06
     .989818308763D+00  .401781250000D+03  .983254944355D+00 -.813926760459D-08
     .237509893240D-09  .100000000000D+01  .226900000000D+04  .000000000000D+00
     .485000000000D+01  .000000000000D+00  .465661287308D-08  .890000000000D+02
     .230400000000D+06  .400000000000D+01
5  23  7  4 18  0  0.0 -.133618246764D-03 -.147792889038D-11  .000000000000D+00
     .650000000000D+02 -.134375000000D+03  .448090093322D-08 -.426383649688D+00
    -.694580376148D-05  .604078825563D-02  .398047268391D-05  .515369894218D+04
     .237600000000D+06 -.949949026108D-07  .262670136584D+01 -.186264514923D-07
     .966805426801D+00  .302593750000D+03  .117614036834D+01 -.830891752834D-08
    -.366086677551D-09  .100000000000D+01  .226900000000D+04  .000000000000D+00
     .240000000000D+01  .000000000000D+00 -.111758708954D-07  .650000000000D+02
     .230400000000D+06  .400000000000D+01
3  23  7  4 18  0  0.0 -.245857983828D-03  .150066625793D-10  .000000000000D+00
     .960000000000D+02 -.160468750000D+03  .406159775328D-08  .210053447608D+01
    -.854209065437D-05  .499530439265D-02  .399164855480D-05  .515365116119D+04
     .237600000000D+06 -.391155481339D-07  .267376335268D+01 -.335276126862D-07
     .979815035858D+00  .312656250000D+03  .105737227859D+01 -.799533303771D-08
    -.381087302387D-09  .100000000000D+01  .226900000000D+04  .000000000000D+00
     .340000000000D+01  .000000000000D+00  .186264514923D-08  .960000000000D+02
     .230400000000D+06  .400000000000D+01
12 23  7  4 18  0  0.0 -.396652612835D-03 -.466116034659D-11  .000000000000D+00
     .340000000000D+02  .750000000000D+00  .425053419467D-08  .191539498535D+01
    -.279396772385D-07  .869621813763D-02  .927597284317D-05  .515357979202D+04
     .237600000000D+06  .558793544769D-07 -.399224114727D+00 -.154599547386D-06
     .965232462172D+00  .201593750000D+03  .138169956513D+01 -.770603527301D-08
    -.544308386915D-09  .100000000000D+01  .226900000000D+04  .000000000000D+00
     .240000000000D+01  .000000000000D+00 -.125728547573D-07  .340000000000D+02
     .230400000000D+06  .400000000000D+01
6  23  7  4 18  0  0.0  .580753199756D-03 -.295585778076D-11  .000000000000D+00
     .500000000000D+02  .685000000000D+02  .427803534020D-08 -.281883842823D+01
     .367499887943D-05  .268942059483D-02  .342726707458D-06  .515369501305D+04
     .237600000000D+06 -.633299350739D-07  .163488451495D+01  .745058059692D-07
     .989017220674D+00  .387781250000D+03 -.747464892170D+00 -.814426781287D-08
     .246438836595D-09  .100000000000D+01  .226900000000D+04  .000000000000D+00
     .240000000000D+01  .000000000000D+00  .372529029846D-08  .500000000000D+02
     .230400000000D+06  .400000000000D+01
4  23  7  4 18  0  0.0  .864118337631D-04  .106865627458D-10  .000000000000D+00
     .151000000000D+03 -.671875000000D+02  .408016995546D-08 -.125602016322D+01
    -.349432229996D-05  .243236706592D-02  .118650496006D-04  .515365633392D+04
     .237600000000D+06  .745058059692D-08 -.252920544500D+01 -.298023223877D-07
     .963179323942D+00  .153562500000D+03 -.298997605646D+01 -.759067332487D-08
     .427874965567D-09  .100000000000D+01  .226900000000D+04  .000000000000D+00
     .240000000000D+01  .000000000000D+00 -.465661287308D-08  .407000000000D+03
     .230400000000D+06  .400000000000D+01
10 23  7  4 18  0  0.0 -.438382849097D-04 -.159161572810D-11  .000000000000D+00
     .690000000000D+02 -.161687500000D+03  .423696220077D-08  .118971734823D+01
    -.823475420475D-05  .858111656271D-02  .489316880703D-05  .515369587517D+04
     .237600000000D+06 -.428408384323D-07  .267112543489D+01  .184401869774D-06
     .979538257609D+00  .298375000000D+03 -.243797778434D+01 -.821891377932D-08
    -.437161066656D-09  .100000000000D+01  .226900000000D+04  .000000000000D+00
     .240000000000D+01  .000000000000D+00  .232830643654D-08  .690000000000D+02
     .230400000000D+06  .400000000000D+01
9  23  7  4 18  0  0.0 -.120243988931D-03  .909494701773D-11  .000000000000D+00
     .800000000000D+02 -.689375000000D+02  .431982279510D-08 -.345300799256D+00
    -.354647636414D-05  .244793063030D-02  .112280249596D-04  .515359052467D+04
     .237600000000D+06 -.242143869400D-07 -.258618031249D+01  .223517417908D-07
     .956545427865D+00  .161343750000D+03  .194347800052D+01 -.775746598674D-08
     .373229832235D-09  .100000000000D+01  .226900000000D+04  .000000000000D+00
     .240000000000D+01  .000000000000D+00  .931322574615D-09  .800000000000D+02
     .230400000000D+06  .400000000000D+01
11 23  7  4 18  0  0.0 -.262122601271D-03 -.158024704433D-10  .000000000000D+00
     .360000000000D+02  .494062500000D+02  .477698469487D-08 -.138058804436D+01
     .269152224064D-05  .886892201379D-03 -.987201929092D-07  .515356192970D+04
     .237600000000D+06  .484287738800D-07  .167536388538D+01  .100582838058D-06
     .965268057895D+00  .383250000000D+03 -.287845687940D+01 -.852106922245D-08
     .197508227010D-09  .100000000000D+01  .226900000000D+04  .000000000000D+00
     .240000000000D+01  .000000000000D+00 -.884756445885D-08  .804000000000D+03
     .230400000000D+06  .400000000000D+01
